#dP2021  1 31  0  0  0.00000000      96 __u+U ITR00 FIT  IAC
## 2143      0.00000000   900.00000000 59245 0.0000000000000
+  124   C01C02C04C05C06C07C08C09C10C11C12C13C14C16C19C20C21
+        C22C23C24C25C26C27C28C29C30C32C33C34C35C36C37C38C39
+        C40C41C42C43C44C45C46E01E02E03E04E05E07E08E09E11E12
+        E13E14E15E18E19E21E24E25E26E27E30E31E33E36G01G02G03
+        G04G05G06G07G08G09G10G11G12G13G14G15G16G17G18G19G20
+        G21G22G23G24G25G26G27G28G29G30G31G32J01J02J03J07R01
+        R02R03R04R05R06R07R08R10R11R12R13R14R15R16R17R18R19
+        R20R21R22R23R24  0  0  0  0  0  0  0  0  0  0  0  0
++        13 13 13 13  8  8  9  8  8  8  8  8  8  8  7  8  8
++         8  8  8  8  8  8  8  8  8  8  8  8  8  8  9 10  9
++         9  9  9  9  9  9  9  4  4  5  4  5  4  4  5  4  4
++         5  4  4  5  4  5  4  4  5  4  5  4  4  5  3  4  4
++         4  4  4  4  4  4  3  4  4  4  3  4  4  4  4  4  4
++         4  4  4  3  4  4  4  4  4  4  4  4  9  9  8 16  6
++         5  6  6  6 13  6  5 13  8  6  6  6  6  6  6  6  7
++         7  6  7 13  6  0  0  0  0  0  0  0  0  0  0  0  0
%c M  cc GPS ccc cccc cccc cccc cccc ccccc ccccc ccccc ccccc
%c cc cc ccc ccc cccc cccc cccc cccc ccccc ccccc ccccc ccccc
%f  0.0000000  0.000000000  0.00000000000  0.000000000000000
%f  0.0000000  0.000000000  0.00000000000  0.000000000000000
%i    0    0    0    0      0      0      0      0         0
%i    0    0    0    0      0      0      0      0         0
/* INFORMATION & ANALYSIS CENTER (IAC)            RAPID DATA
/* S/V CLOCKS ARE ALIGNED TO GNSS TIME                      
/* G:C1WC2W R:C1PC2P E:C1XC5X C:C2IC6I J:C1CC2S             
/* PCV:IGS14_2134 OL/AL:FES2004  NONE     YN ORB:CoN CLK:CoN
*  2021 01 31 12  0  0.00000000
PC01 -34353.660377  24480.619888    213.503032   -755.557164
PC02   4329.409530  41903.385386   -939.259547    550.617351
PC04 -39645.528608  14392.014038    572.860437    112.128403
PC05  21869.881319  36011.788535  -1293.572738   -662.046680
PC06  -5822.986833  27619.863848 -30772.986677     50.721578
PC07 -21198.727977  26559.995945  24893.466246   -280.369358
PC08 -16679.242066  38459.473772   6219.365232   -922.882699
PC09   7029.293714  34895.319635 -21987.850858    765.838641
PC10  -7392.046376  27831.007766  30889.253996    -94.480082
PC11  13801.585993  -6632.164170 -23262.315694   -923.897003
PC12  19544.068431  12074.595807 -15812.582161    765.999107
PC13  -6926.187746  40813.236618  -8554.459667    121.457022
PC14  24918.196132  -7864.091501   9895.640478     27.267325
PC16  -4499.983183  28034.070258 -31033.295814   -678.496344
PC19 -17754.326441  12718.971010 -17340.818765    710.836190
PC20 -27682.362647   2614.989145  -2191.152335   -911.664461
PC21  21530.336662   9554.749488 -14960.992727   -816.681672
PC22   2786.900510  15747.042965 -22869.150604   -862.943356
PC23   3138.623976 -24695.305923 -12602.555361   -877.745836
PC24  19163.016651  -6630.664324  19145.279025   -751.209719
PC25  15065.258183 -23109.866032   4115.905069   -916.805551
PC26  11995.679298  11586.856003  22368.726869    955.169303
PC27 -18121.769815 -19788.783848   7689.699390    475.542433
PC28  -7137.912973 -25090.193009  -9902.372829   -115.148522
PC29  -7411.320460  15991.947823  21631.671917    346.034788
PC30 -18735.754669  -2684.746154  20514.965209    438.582309
PC32 -21560.354186  -9437.593257  15003.720482   -888.474715
PC33  17772.152237 -12817.513278  17293.158267   -942.355521
PC34  18513.104250   1968.007623 -20782.804728   -750.676044
PC35   7731.022971  24798.468626  10150.730470   -439.965314
PC36 -15750.721448  22611.857039  -4407.600958   -765.004479
PC37 -11213.562970 -12587.914923 -22222.134998   -862.013288
PC38 -15295.109261  39153.678849   4062.077310    127.207076
PC39  -1586.739678  28849.334757 -30663.760030     27.990989
PC40 -15363.376465  22705.265083  32006.436428    126.810165
PC41  -2515.564539 -15826.712945  22892.214378   -931.536227
PC42  27777.356054  -2248.737499   1604.188495   -835.140977
PC43   7919.903822 -15670.384993 -21696.777188   -576.750286
PC44  18737.885900  19246.380818  -7497.412092     14.720502
PC45  -3109.659980  24673.755317  12686.972783    349.772188
PC46 -19204.108984   7651.135518 -18764.144575 999999.999999
PE01  15593.943171   8476.144220  23685.019705  -1036.283304
PE02 -15716.174765  -8364.419818 -23654.511929    195.022612
PE03 -24378.437744 -15730.231650   5833.247029   -393.421298
PE04  26802.685147   2761.242531  12254.090644   -700.131320
PE05  -7611.464205 -19666.044257  20770.083416   -308.403360
PE07 -13429.174363  12089.866099 -23442.776580   -494.794842
PE08 -26688.651736  -2443.839814 -12559.076474   6053.921641
PE09  13180.375234 -12116.006307  23574.086743   5780.946029
PE11   9214.379667 -22105.616316 -17404.734431   6388.827190
PE12  16186.481548  -1214.813939 -24742.675776   5379.426294
PE13  -9313.957645  21791.116474  17745.258011    411.249438
PE14  15485.818565 -13777.685133 -24960.409968  -1313.719981
PE15 -16113.513613   1293.332880  24810.722860    831.608986
PE18  -5935.082449  14450.809310  17926.730497  -1435.961136
PE19  23083.617012  16722.958084  -7970.358816    192.104811
PE21  -3006.520709  19960.195614  21650.756704   -645.870541
PE24  20917.258614 -19924.380908  -6393.446193   -718.723556
PE25   3170.176515 -20010.945893 -21571.839526   -525.461949
PE26   3241.124809  29420.184117   -432.453303   2202.206715
PE27 -20463.662942  20231.565738   6973.954821     39.691994
PE30 -25744.176477   7853.555951 -12352.959876   3218.884802
PE31  25781.223474  -8599.228514  11721.356120   -477.857292
PE33  13415.558439  19942.079908 -17258.241833   -465.306643
PE36  -2967.163836 -29453.350050   -232.477455    446.911828
PG01 -13375.911663  14958.299254  16980.896431    770.359997
PG02  13593.582576   9426.072063 -20117.093027   -571.920325
PG03 -22400.895030  13274.490001  -5031.147683    -70.603816
PG04 -15714.095733   5849.922288 -20605.665885   -176.867300
PG05  23408.818780   -912.026429 -12842.938854    -32.439579
PG06   6501.514622  21777.626673 -13638.087302     -3.936166
PG07  -6429.616204  25060.842538  -4372.010106     41.905281
PG08 -20560.323718   -496.472697  16977.709078     -8.586008
PG09  -4413.821279  15422.729053 -21227.118482   -318.358050
PG10  -2710.801396 -15114.151589  21753.458158    -51.292410
PG11 -14653.025814   6477.561469  20746.956690    -37.749856
PG12  24626.980524  -9619.196449  -1615.995326      5.393005
PG13  21708.227277  11286.152510  10349.802820     91.942977
PG14      0.979884  15917.495911  21252.654609     92.676072
PG15  20594.797396  -2158.867617  16469.310914   -172.602341
PG16 -22880.928983  -2500.846414 -13887.128071   -273.144620
PG17  11237.540521  20680.711202  12743.346841    387.179327
PG18   5130.102844 -25954.415589  -1970.382111    344.814960
PG19  16920.547062  19943.813934   4603.899121    -44.686433
PG20   9103.976427 -19099.010520  15834.101422    524.913735
PG21 -15408.375158   6353.970253  21335.443126     91.572230
PG22 -24350.687938   9465.790678   4446.926303   -688.255896
PG23   9184.970736 -17618.222462  17583.937058    117.726822
PG24  14752.246490 -10235.406858  19209.101806      2.947841
PG25  15571.283799 -16811.368151 -13440.796351     70.976966
PG26 -15029.446491  -8990.886411 -20087.450512     38.042435
PG27 -23059.168460 -11796.337959   6534.796427    -67.046702
PG28   2985.170638  14950.521829  22322.033734    622.164149
PG29   5648.004522 -14218.310685 -21745.408128   -286.176191
PG30   1129.615980  25570.920116   6694.363975   -377.530727
PG31  -8271.205467 -19618.486797 -15655.990571    -97.242304
PG32 -13367.399446 -20003.218016  11529.217508     16.905469
PJ01 -31604.559753  15610.238365 -18495.918649   -338.554727
PJ02 -29595.895248  30029.598844   3948.484035      1.297524
PJ03 -24762.441816  24152.258036  29226.538121     -0.368828
PJ07 -25416.396264  33649.702869    -30.004777      0.067419
PR01  -3522.335577 -11408.006061  22539.072084     74.287615
PR02 -22271.355422  -8067.352988   9582.783607    465.113249
PR03 -24286.449092    103.907782  -7848.246638     30.096263
PR04 -12519.292539   7923.392282 -20742.306721     72.230448
PR05   6155.619734  11367.134190 -21977.032483     65.710996
PR06  22904.231932   7140.806015  -8638.968248    191.939759
PR07  24005.780847   -471.387483   8578.969350    -42.300132
PR08  12457.028792  -8089.589791  20782.862446    -57.151491
PR10  17362.606781 -10274.781279  15546.957496    -65.999288
PR11  15029.912264 -20567.635730  -1381.982462      3.992564
PR12   3734.716849 -18147.930574 -17496.226646    201.172740
PR13  -9681.520914  -5419.475383 -22988.589693    -50.049155
PR14 -17698.883837  10903.465006 -14770.423771     60.472677
PR15 -15165.984052  20437.900345   1795.451936    105.650195
PR16  -2638.533068  17961.035987  17956.664292    -10.777560
PR17 -11566.286922  -1246.252371  22711.590271    396.026210
PR18  -3797.227484  15309.845054  20048.455945     65.047897
PR19   5010.284543  23908.015995   7356.464750   -130.135218
PR20  12366.368737  18541.596310 -12351.568643   -432.335617
PR21  11141.384981    163.513193 -22940.792085   -184.302970
PR22   3117.826685 -16324.862388 -19395.668642    -95.395866
PR23  -9019.762855 -23862.691596     38.270475    363.006345
PR24 -12981.098150 -17784.030689  12894.436417     29.799350
EOF
